{
  "type": "FeatureCollection",
  "features": [
    {
      "type": "Feature",
      "properties": {
        "norad_id": 45807,
        "name": "BEIDOU-3 G3 (C61)",
        "group": "gnss",
        "lat": -1.8173726656335647,
        "lon": -50.36188711720313,
        "alt_km": 35776.25805132953,
        "timestamp": "2025-12-25T07:00:34.289872+00:00",
        "meta_object_name": "BEIDOU-3 G3 (C61)",
        "meta_object_id": "2020-040A",
        "meta_epoch": "2025-12-24T22:11:03.869376",
        "meta_mean_motion": 1.00267778,
        "meta_eccentricity": 0.00065864,
        "meta_inclination": 2.0187,
        "meta_ra_of_asc_node": 66.6838,
        "meta_arg_of_pericenter": 308.9241,
        "meta_mean_anomaly": 161.3844,
        "meta_ephemeris_type": 0,
        "meta_classification_type": "U",
        "meta_norad_cat_id": 45807,
        "meta_element_set_no": 999,
        "meta_rev_at_epoch": 2032,
        "meta_bstar": 0,
        "meta_mean_motion_dot": -3.33e-06,
        "meta_mean_motion_ddot": 0,
        "tle_line1": "1 45807U 20040A   25358.92435034 -.00000333  00000+0  00000+0 0  9991",
        "tle_line2": "2 45807   2.0187  66.6838 0006586 308.9241 161.3844  1.00267778 20325"
      },
      "geometry": {
        "type": "Point",
        "coordinates": [
          -50.36188711720313,
          -1.8173726656335647
        ]
      }
    },
    {
      "type": "Feature",
      "properties": {
        "norad_id": 45854,
        "name": "GPS BIII-3  (PRN 23)",
        "group": "gnss",
        "lat": 37.89346322116949,
        "lon": 66.65525455365568,
        "alt_km": 20325.356467023965,
        "timestamp": "2025-12-25T07:00:34.289884+00:00",
        "meta_object_name": "GPS BIII-3  (PRN 23)",
        "meta_object_id": "2020-041A",
        "meta_epoch": "2025-12-24T07:36:15.586848",
        "meta_mean_motion": 2.00561688,
        "meta_eccentricity": 0.00606528,
        "meta_inclination": 56.5546,
        "meta_ra_of_asc_node": 35.7353,
        "meta_arg_of_pericenter": 203.7393,
        "meta_mean_anomaly": 219.8521,
        "meta_ephemeris_type": 0,
        "meta_classification_type": "U",
        "meta_norad_cat_id": 45854,
        "meta_element_set_no": 999,
        "meta_rev_at_epoch": 4053,
        "meta_bstar": 0,
        "meta_mean_motion_dot": -4.9e-07,
        "meta_mean_motion_ddot": 0,
        "tle_line1": "1 45854U 20041A   25358.31684707 -.00000049  00000+0  00000+0 0  9994",
        "tle_line2": "2 45854  56.5546  35.7353 0060652 203.7393 219.8521  2.00561688 40537"
      },
      "geometry": {
        "type": "Point",
        "coordinates": [
          66.65525455365568,
          37.89346322116949
        ]
      }
    },
    {
      "type": "Feature",
      "properties": {
        "norad_id": 46114,
        "name": "GALAXY 30 (WAAS/PRN 135)",
        "group": "gnss",
        "lat": 0.030891553078873937,
        "lon": 74.19492465422275,
        "alt_km": 35794.826193894376,
        "timestamp": "2025-12-25T07:00:34.289895+00:00",
        "meta_object_name": "GALAXY 30 (WAAS/PRN 135)",
        "meta_object_id": "2020-056C",
        "meta_epoch": "2025-12-24T14:13:04.643040",
        "meta_mean_motion": 1.00271053,
        "meta_eccentricity": 0.00021373,
        "meta_inclination": 0.0158,
        "meta_ra_of_asc_node": 331.484,
        "meta_arg_of_pericenter": 301.012,
        "meta_mean_anomaly": 269.1362,
        "meta_ephemeris_type": 0,
        "meta_classification_type": "U",
        "meta_norad_cat_id": 46114,
        "meta_element_set_no": 999,
        "meta_rev_at_epoch": 1954,
        "meta_bstar": 0,
        "meta_mean_motion_dot": 5.8e-07,
        "meta_mean_motion_ddot": 0,
        "tle_line1": "1 46114U 20056C   25358.59241485  .00000058  00000+0  00000+0 0  9991",
        "tle_line2": "2 46114   0.0158 331.4840 0002137 301.0120 269.1362  1.00271053 19542"
      },
      "geometry": {
        "type": "Point",
        "coordinates": [
          74.19492465422275,
          0.030891553078873937
        ]
      }
    },
    {
      "type": "Feature",
      "properties": {
        "norad_id": 46805,
        "name": "COSMOS 2547 (705K)",
        "group": "gnss",
        "lat": -17.353409469952076,
        "lon": -170.26249362696782,
        "alt_km": 19138.864101756128,
        "timestamp": "2025-12-25T07:00:34.289907+00:00",
        "meta_object_name": "COSMOS 2547 (705K)",
        "meta_object_id": "2020-075A",
        "meta_epoch": "2025-12-22T23:18:06.838272",
        "meta_mean_motion": 2.13100223,
        "meta_eccentricity": 0.00061117,
        "meta_inclination": 64.5968,
        "meta_ra_of_asc_node": 198.3547,
        "meta_arg_of_pericenter": 227.5721,
        "meta_mean_anomaly": 132.44,
        "meta_ephemeris_type": 0,
        "meta_classification_type": "U",
        "meta_norad_cat_id": 46805,
        "meta_element_set_no": 999,
        "meta_rev_at_epoch": 4015,
        "meta_bstar": 0,
        "meta_mean_motion_dot": 9.5e-07,
        "meta_mean_motion_ddot": 0,
        "tle_line1": "1 46805U 20075A   25356.97091248  .00000095  00000+0  00000+0 0  9990",
        "tle_line2": "2 46805  64.5968 198.3547 0006111 227.5721 132.4400  2.13100223 40153"
      },
      "geometry": {
        "type": "Point",
        "coordinates": [
          -170.26249362696782,
          -17.353409469952076
        ]
      }
    },
    {
      "type": "Feature",
      "properties": {
        "norad_id": 46826,
        "name": "GPS BIII-4  (PRN 14)",
        "group": "gnss",
        "lat": 15.308458065733015,
        "lon": -130.68381472597272,
        "alt_km": 20351.929379747024,
        "timestamp": "2025-12-25T07:00:34.289918+00:00",
        "meta_object_name": "GPS BIII-4  (PRN 14)",
        "meta_object_id": "2020-078A",
        "meta_epoch": "2025-12-16T01:06:13.902336",
        "meta_mean_motion": 2.00566891,
        "meta_eccentricity": 0.0064754,
        "meta_inclination": 54.0144,
        "meta_ra_of_asc_node": 218.2068,
        "meta_arg_of_pericenter": 203.3802,
        "meta_mean_anomaly": 339.3962,
        "meta_ephemeris_type": 0,
        "meta_classification_type": "U",
        "meta_norad_cat_id": 46826,
        "meta_element_set_no": 999,
        "meta_rev_at_epoch": 3783,
        "meta_bstar": 0,
        "meta_mean_motion_dot": 6.7e-07,
        "meta_mean_motion_ddot": 0,
        "tle_line1": "1 46826U 20078A   25350.04599424  .00000067  00000+0  00000+0 0  9996",
        "tle_line2": "2 46826  54.0144 218.2068 0064754 203.3802 339.3962  2.00566891 37830"
      },
      "geometry": {
        "type": "Point",
        "coordinates": [
          -130.68381472597272,
          15.308458065733015
        ]
      }
    },
    {
      "type": "Feature",
      "properties": {
        "norad_id": 48859,
        "name": "GPS BIII-5  (PRN 11)",
        "group": "gnss",
        "lat": -19.217661406673283,
        "lon": 173.43496511200507,
        "alt_km": 20129.1496038071,
        "timestamp": "2025-12-25T07:00:34.289932+00:00",
        "meta_object_name": "GPS BIII-5  (PRN 11)",
        "meta_object_id": "2021-054A",
        "meta_epoch": "2025-12-08T04:14:32.423424",
        "meta_mean_motion": 2.00553627,
        "meta_eccentricity": 0.0024678,
        "meta_inclination": 55.2581,
        "meta_ra_of_asc_node": 340.1367,
        "meta_arg_of_pericenter": 233.3993,
        "meta_mean_anomaly": 212.8594,
        "meta_ephemeris_type": 0,
        "meta_classification_type": "U",
        "meta_norad_cat_id": 48859,
        "meta_element_set_no": 999,
        "meta_rev_at_epoch": 3292,
        "meta_bstar": 0,
        "meta_mean_motion_dot": -8.6e-07,
        "meta_mean_motion_ddot": 0,
        "tle_line1": "1 48859U 21054A   25342.17676416 -.00000086  00000+0  00000+0 0  9993",
        "tle_line2": "2 48859  55.2581 340.1367 0024678 233.3993 212.8594  2.00553627 32922"
      },
      "geometry": {
        "type": "Point",
        "coordinates": [
          173.43496511200507,
          -19.217661406673283
        ]
      }
    },
    {
      "type": "Feature",
      "properties": {
        "norad_id": 49336,
        "name": "QZS-1R (QZSS/PRN 196)",
        "group": "gnss",
        "lat": -33.95104123236936,
        "lon": -35.05175807011802,
        "alt_km": 32844.3887809397,
        "timestamp": "2025-12-25T07:00:34.289944+00:00",
        "meta_object_name": "QZS-1R (QZSS/PRN 196)",
        "meta_object_id": "2021-096A",
        "meta_epoch": "2025-12-24T14:02:51.747360",
        "meta_mean_motion": 1.00253394,
        "meta_eccentricity": 0.0757125,
        "meta_inclination": 37.101,
        "meta_ra_of_asc_node": 82.185,
        "meta_arg_of_pericenter": 271.5387,
        "meta_mean_anomaly": 84.3648,
        "meta_ephemeris_type": 0,
        "meta_classification_type": "U",
        "meta_norad_cat_id": 49336,
        "meta_element_set_no": 999,
        "meta_rev_at_epoch": 1526,
        "meta_bstar": 0,
        "meta_mean_motion_dot": -2.38e-06,
        "meta_mean_motion_ddot": 0,
        "tle_line1": "1 49336U 21096A   25358.58532115 -.00000238  00000+0  00000+0 0  9998",
        "tle_line2": "2 49336  37.1010  82.1850 0757125 271.5387  84.3648  1.00253394 15267"
      },
      "geometry": {
        "type": "Point",
        "coordinates": [
          -35.05175807011802,
          -33.95104123236936
        ]
      }
    }
  ]
}